[{"OBJECT_NAME":"STARLINK-1954","OBJECT_ID":"2021-009H","EPOCH":"2026-03-09T23:20:25.352160","MEAN_MOTION":15.30849174,"ECCENTRICITY":0.00046184,"INCLINATION":53.0574,"RA_OF_ASC_NODE":8.8654,"ARG_OF_PERICENTER":103.3293,"MEAN_ANOMALY":256.8222,"EPHEMERIS_TYPE":0,"CLASSIFICATION_TYPE":"U","NORAD_CAT_ID":47555,"ELEMENT_SET_NO":999,"REV_AT_EPOCH":28100,"BSTAR":0.0022371791,"MEAN_MOTION_DOT":0.00067883,"MEAN_MOTION_DDOT":0},{"OBJECT_NAME":"RUNNER-1 (TYVAK-1005)","OBJECT_ID":"2023-084X","EPOCH":"2026-03-09T23:04:09.569568","MEAN_MOTION":15.35579757,"ECCENTRICITY":0.0007303,"INCLINATION":97.6067,"RA_OF_ASC_NODE":207.5453,"ARG_OF_PERICENTER":311.3836,"MEAN_ANOMALY":48.6778,"EPHEMERIS_TYPE":0,"CLASSIFICATION_TYPE":"U","NORAD_CAT_ID":56953,"ELEMENT_SET_NO":999,"REV_AT_EPOCH":15236,"BSTAR":0.00038328234,"MEAN_MOTION_DOT":0.0001319,"MEAN_MOTION_DDOT":0}]
